NORAD_CAT_ID,OBJECT_NAME,OBJECT_TYPE,EPOCH,MEAN_MOTION,ECCENTRICITY,INCLINATION,RA_OF_ASC_NODE,ARG_OF_PERICENTER,MEAN_ANOMALY,BSTAR,MEAN_MOTION_DOT,MEAN_MOTION_DDOT,TLE_LINE0,TLE_LINE1,TLE_LINE2,SEMIMAJOR_AXIS,PERIOD,APOGEE,PERIGEE,DECAYED
49167.0,STARLINK-3054,PAYLOAD,2024-08-09 15:46:46,14.9831209,0.0003121,70.0011,309.3535,267.9884,92.0918,-0.00028776,-3.523e-05,0.0,0 STARLINK-3054,1 49167U 21082AP  24222.65748724 -.00003523  00000-0 -28776-3 0  9993,2 49167  70.0011 309.3535 0003121 267.9884  92.0918 14.98312090160752,6950.248,96.108,574.282,569.944,0.0
49167.0,STARLINK-3054,PAYLOAD,2024-08-10 04:35:50,14.9831226,0.0003463,70.0012,308.0031,272.6905,87.3857,-0.00017964,-2.235e-05,0.0,0 STARLINK-3054,1 49167U 21082AP  24223.19156134 -.00002235  00000-0 -17964-3 0  9997,2 49167  70.0012 308.0031 0003463 272.6905  87.3857 14.98312260160833,6950.248,96.108,574.52,569.706,0.0
49167.0,STARLINK-3054,PAYLOAD,2024-08-10 12:36:30,14.98330734,0.000336,70.0017,307.1647,276.3674,83.7102,0.00034392,4.013e-05,0.0,0 STARLINK-3054,1 49167U 21082AP  24223.52535594  .00004013  00000-0  34392-3 0  9993,2 49167  70.0017 307.1647 0003360 276.3674  83.7102 14.98330734160885,6950.191,96.107,574.391,569.72,0.0
49167.0,STARLINK-3054,PAYLOAD,2024-08-10 14:12:38,14.98339319,0.0003191,70.0022,306.9973,270.9907,89.0886,0.00083435,9.879e-05,0.0,0 STARLINK-3054,1 49167U 21082AP  24223.59211383  .00009879  00000-0  83435-3 0  9994,2 49167  70.0022 306.9973 0003191 270.9907  89.0886 14.98339319160887,6950.164,96.106,574.247,569.811,0.0
49167.0,STARLINK-3054,PAYLOAD,2024-08-10 15:48:46,14.98345712,0.0003317,70.0023,306.829,274.1866,85.8914,0.0016603,0.00019782,0.0,0 STARLINK-3054,1 49167U 21082AP  24223.65887552  .00019782  00000-0  16603-2 0  9994,2 49167  70.0023 306.8290 0003317 274.1866  85.8914 14.98345712160902,6950.144,96.106,574.315,569.704,0.0
49167.0,STARLINK-3054,PAYLOAD,2024-08-11 09:26:15,14.98354599,0.0002755,70.0037,304.9781,277.825,82.2596,0.0010071,0.00011952,0.0,0 STARLINK-3054,1 49167U 21082AP  24224.39323119  .00011952  00000-0  10071-2 0  9994,2 49167  70.0037 304.9781 0002755 277.8250  82.2596 14.98354599161016,6950.117,96.105,573.897,570.067,0.0
49167.0,STARLINK-3054,PAYLOAD,2024-08-11 22:15:19,14.98336979,0.0002966,70.0027,303.6287,280.5525,79.53,0.0004845,5.694e-05,0.0,0 STARLINK-3054,1 49167U 21082AP  24224.92730797  .00005694  00000-0  48450-3 0  9996,2 49167  70.0027 303.6287 0002966 280.5525  79.5300 14.98336979161083,6950.171,96.107,574.098,569.975,0.0
49167.0,STARLINK-3054,PAYLOAD,2024-08-12 11:04:23,14.98352687,0.0003096,70.0028,302.2864,266.15,93.9305,0.00052477,6.178e-05,0.0,0 STARLINK-3054,1 49167U 21082AP  24225.46138263  .00006178  00000-0  52477-3 0  9998,2 49167  70.0028 302.2864 0003096 266.1500  93.9305 14.98352687161166,6950.123,96.106,574.139,569.836,0.0
49167.0,STARLINK-3054,PAYLOAD,2024-08-12 15:52:46,14.98370911,0.0002979,70.001,301.7734,254.9499,105.1331,0.001298,0.00015445,0.0,0 STARLINK-3054,1 49167U 21082AP  24225.66165271  .00015445  00000-0  12980-2 0  9990,2 49167  70.0010 301.7734 0002979 254.9499 105.1331 14.98370911161208,6950.066,96.104,574.002,569.861,0.0
49167.0,STARLINK-3054,PAYLOAD,2024-08-12 22:17:18,14.98365206,0.0003501,70.0032,301.1072,269.3129,90.7629,0.0009862,0.00011705,0.0,0 STARLINK-3054,1 49167U 21082AP  24225.92869081  .00011705  00000-0  98620-3 0  9990,2 49167  70.0032 301.1072 0003501 269.3129  90.7629 14.98365206161236,6950.084,96.105,574.382,569.516,0.0
49167.0,STARLINK-3054,PAYLOAD,2024-08-13 04:41:51,14.9831905,0.0003292,70.002,300.4323,268.828,91.2502,-0.0015257,-0.00018245,0.0,0 STARLINK-3054,1 49167U 21082AP  24226.19573771 -.00018245  00000-0 -15257-2 0  9990,2 49167  70.0020 300.4323 0003292 268.8280  91.2502 14.98319050161280,6950.227,96.108,574.38,569.804,0.0
49167.0,STARLINK-3054,PAYLOAD,2024-08-13 11:06:24,14.98323239,0.0003208,70.0012,299.7587,268.74,91.3391,-0.00044968,-5.453e-05,0.0,0 STARLINK-3054,1 49167U 21082AP  24226.46278357 -.00005453  00000-0 -44968-3 0  9991,2 49167  70.0012 299.7587 0003208 268.7400  91.3391 14.98323239161318,6950.214,96.107,574.308,569.849,0.0
49167.0,STARLINK-3054,PAYLOAD,2024-08-13 22:19:21,14.98321001,0.0003216,70.0013,298.5804,269.3132,90.7659,-0.00032183,-3.93e-05,0.0,0 STARLINK-3054,1 49167U 21082AP  24226.93010713 -.00003930  00000-0 -32183-3 0  9997,2 49167  70.0013 298.5804 0003216 269.3132  90.7659 14.98321001161388,6950.221,96.108,574.321,569.851,0.0
49167.0,STARLINK-3054,PAYLOAD,2024-08-14 12:44:34,14.98310732,0.0003224,70.0014,297.0654,266.5413,93.5377,-0.00016045,-2.006e-05,0.0,0 STARLINK-3054,1 49167U 21082AP  24227.53095804 -.00002006  00000-0 -16045-3 0  9990,2 49167  70.0014 297.0654 0003224 266.5413  93.5377 14.98310732161484,6950.252,96.108,574.358,569.877,0.0
49167.0,STARLINK-3054,PAYLOAD,2024-08-14 14:20:42,14.98311563,0.0003199,70.0013,296.8969,266.0328,94.0465,-6.8794e-05,-9.13e-06,0.0,0 STARLINK-3054,1 49167U 21082AP  24227.59771885 -.00000913  00000-0 -68794-4 0  9990,2 49167  70.0013 296.8969 0003199 266.0328  94.0465 14.98311563161487,6950.25,96.108,574.338,569.892,0.0
49167.0,STARLINK-3054,PAYLOAD,2024-08-14 22:21:23,14.98313843,0.0003198,70.0014,296.0553,264.9374,95.142,0.00026977,3.126e-05,0.0,0 STARLINK-3054,1 49167U 21082AP  24227.93152387  .00003126  00000-0  26977-3 0  9991,2 49167  70.0014 296.0553 0003198 264.9374  95.1420 14.98313843161538,6950.243,96.108,574.331,569.885,0.0
49167.0,STARLINK-3054,PAYLOAD,2024-08-15 11:10:28,14.98327431,0.0003188,70.0015,294.708,265.6809,94.3986,0.00075582,8.936e-05,0.0,0 STARLINK-3054,1 49167U 21082AP  24228.46560626  .00008936  00000-0  75582-3 0  9999,2 49167  70.0015 294.7080 0003188 265.6809  94.3986 14.98327431161614,6950.201,96.107,574.282,569.85,0.0
49167.0,STARLINK-3054,PAYLOAD,2024-08-15 22:23:24,14.98340925,0.0003209,70.0016,293.5298,265.8606,94.2186,0.00087238,0.00010335,0.0,0 STARLINK-3054,1 49167U 21082AP  24228.93292329  .00010335  00000-0  87238-3 0  9990,2 49167  70.0016 293.5298 0003209 265.8606  94.2186 14.98340925161685,6950.159,96.106,574.254,569.794,0.0
49167.0,STARLINK-3054,PAYLOAD,2024-08-16 04:47:56,14.98353157,0.0003224,70.0015,292.8565,266.0252,94.0538,0.001108,0.0001316,0.0,0 STARLINK-3054,1 49167U 21082AP  24229.19995926  .00013160  00000-0  11080-2 0  9992,2 49167  70.0015 292.8565 0003224 266.0252  94.0538 14.98353157161736,6950.121,96.106,574.227,569.746,0.0
49167.0,STARLINK-3054,PAYLOAD,2024-08-16 09:36:20,14.98361513,0.0003237,70.0016,292.3515,266.3867,93.6922,0.0012988,0.00015451,0.0,0 STARLINK-3054,1 49167U 21082AP  24229.40023545  .00015451  00000-0  12988-2 0  9998,2 49167  70.0016 292.3515 0003237 266.3867  93.6922 14.98361513161755,6950.095,96.105,574.21,569.711,0.0
49167.0,STARLINK-3054,PAYLOAD,2024-08-17 04:49:56,14.98351977,0.0003214,70.0015,290.3317,266.7129,93.3663,0.00029387,3.417e-05,0.0,0 STARLINK-3054,1 49167U 21082AP  24230.20134692  .00003417  00000-0  29387-3 0  9995,2 49167  70.0015 290.3317 0003214 266.7129  93.3663 14.98351977161888,6950.125,96.106,574.224,569.756,0.0
49167.0,STARLINK-3054,PAYLOAD,2024-08-17 08:02:12,14.98354642,0.0003143,70.0022,289.9955,270.7952,89.2847,0.00039863,4.67e-05,0.0,0 STARLINK-3054,1 49167U 21082AP  24230.33486497  .00004670  00000-0  39863-3 0  9994,2 49167  70.0022 289.9955 0003143 270.7952  89.2847 14.98354642161899,6950.117,96.105,574.166,569.797,0.0
49167.0,STARLINK-3054,PAYLOAD,2024-08-18 04:51:56,14.98349564,0.0003935,69.9984,287.803,282.7641,77.3078,0.00011182,1.242e-05,0.0,0 STARLINK-3054,1 49167U 21082AP  24231.20273529  .00001242  00000-0  11182-3 0  9997,2 49167  69.9984 287.8030 0003935 282.7641  77.3078 14.98349564162039,6950.132,96.106,574.732,569.263,0.0
49167.0,STARLINK-3054,PAYLOAD,2024-08-18 12:52:37,14.98331493,0.0002961,70.0009,286.9652,259.846,100.2365,-0.0002682,-3.292e-05,0.0,0 STARLINK-3054,1 49167U 21082AP  24231.53654020 -.00003292  00000-0 -26820-3 0  9996,2 49167  70.0009 286.9652 0002961 259.8460 100.2365 14.98331493162084,6950.188,96.107,574.111,569.995,0.0
49167.0,STARLINK-3054,PAYLOAD,2024-08-19 09:42:21,14.98329396,0.0003196,70.0001,284.7762,268.8434,91.2358,-0.00025813,-3.172e-05,0.0,0 STARLINK-3054,1 49167U 21082AP  24232.40442128 -.00003172  00000-0 -25813-3 0  9995,2 49167  70.0001 284.7762 0003196 268.8434  91.2358 14.98329396162200,6950.195,96.107,574.281,569.838,0.0
49167.0,STARLINK-3054,PAYLOAD,2024-08-20 04:55:59,14.98326223,0.0002934,70.0001,282.7575,257.9634,102.1196,0.00026148,3.028e-05,0.0,0 STARLINK-3054,1 49167U 21082AP  24233.20554571  .00003028  00000-0  26148-3 0  9990,2 49167  70.0001 282.7575 0002934 257.9634 102.1196 14.98326223162332,6950.205,96.107,574.109,570.03,0.0
49167.0,STARLINK-3054,PAYLOAD,2024-08-20 12:56:39,14.98332321,0.000305,69.9997,281.9154,263.3144,96.7668,0.00033946,3.96e-05,0.0,0 STARLINK-3054,1 49167U 21082AP  24233.53934445  .00003960  00000-0  33946-3 0  9997,2 49167  69.9997 281.9154 0003050 263.3144  96.7668 14.98332321162376,6950.186,96.107,574.171,569.931,0.0
49167.0,STARLINK-3054,PAYLOAD,2024-08-21 04:57:59,14.9833418,0.0003056,69.9995,280.2322,263.7768,96.3043,0.00028854,3.352e-05,0.0,0 STARLINK-3054,1 49167U 21082AP  24234.20694439  .00003352  00000-0  28854-3 0  9995,2 49167  69.9995 280.2322 0003056 263.7768  96.3043 14.98334180162485,6950.18,96.107,574.169,569.921,0.0
49167.0,STARLINK-3054,PAYLOAD,2024-08-21 12:58:40,14.98336652,0.0003066,69.9997,279.3907,264.035,96.046,0.00026155,3.03e-05,0.0,0 STARLINK-3054,1 49167U 21082AP  24234.54074279  .00003030  00000-0  26155-3 0  9991,2 49167  69.9997 279.3907 0003066 264.0350  96.0460 14.98336652162528,6950.172,96.107,574.168,569.906,0.0
49167.0,STARLINK-3054,PAYLOAD,2024-08-21 20:59:20,14.98335716,0.0003063,69.9993,278.5475,263.4616,96.6195,0.00019331,2.215e-05,0.0,0 STARLINK-3054,1 49167U 21082AP  24234.87454267  .00002215  00000-0  19331-3 0  9998,2 49167  69.9993 278.5475 0003063 263.4616  96.6195 14.98335716162576,6950.175,96.107,574.169,569.911,0.0
